IRIDIUM 166             
1 43570U 18061B   25011.91488371  .00000018  00000+0 -50136-6 0  9995
2 43570  86.3960 274.5522 0002146  94.7497 265.3944 14.34215449338681
IRIDIUM 158             
1 43571U 18061C   25011.81340815  .00000130  00000+0  39512-4 0  9992
2 43571  86.3959 274.6043 0001807  87.2700 272.8702 14.34218474338637
IRIDIUM 165             
1 43572U 18061D   25011.83878691  .00000457  00000+0  15613-3 0  9990
2 43572  86.3962 274.6303 0002273  84.4066 275.7388 14.34218456338668
IRIDIUM 155             
1 43573U 18061E   25011.80073259  .00000441  00000+0  15025-3 0  9995
2 43573  86.3958 274.5411 0001845  92.5403 267.6004 14.34216687338627
IRIDIUM 154             
1 43574U 18061F   25011.78169552  .00000372  00000+0  12588-3 0  9999
2 43574  86.3962 274.6569 0002109  84.2707 275.8729 14.34218955338677
IRIDIUM 163             
1 43575U 18061G   25011.83243522  .00000354  00000+0  11925-3 0  9990
2 43575  86.3961 274.5676 0001965  82.4844 277.6575 14.34219486338653
IRIDIUM 156             
1 43576U 18061H   25011.80706489  .00000261  00000+0  86022-4 0  9992
2 43576  86.3958 274.5847 0002003  96.0006 264.1418 14.34219471338645
IRIDIUM 164             
1 43577U 18061J   25011.78804575  .00000446  00000+0  15226-3 0  9997
2 43577  86.3959 274.6248 0002325  83.7008 276.4453 14.34217514338680
